{
    "links": {
        "self": "http://www.neowsapp.com/rest/v1/neo/3407477?api_key=iIulBulltgU6a56xZRHN4H3l9WmuAYTsLGpBGhQ2"
    },
    "id": "3407477",
    "neo_reference_id": "3407477",
    "name": "(2008 FK)",
    "designation": "2008 FK",
    "nasa_jpl_url": "http://ssd.jpl.nasa.gov/sbdb.cgi?sstr=3407477",
    "absolute_magnitude_h": 27.3,
    "estimated_diameter": {
        "kilometers": {
            "estimated_diameter_min": 0.0092162655,
            "estimated_diameter_max": 0.0206081961
        },
        "meters": {
            "estimated_diameter_min": 9.216265485,
            "estimated_diameter_max": 20.6081961232
        },
        "miles": {
            "estimated_diameter_min": 0.0057267201,
            "estimated_diameter_max": 0.0128053354
        },
        "feet": {
            "estimated_diameter_min": 30.2370924539,
            "estimated_diameter_max": 67.6121941689
        }
    },
    "is_potentially_hazardous_asteroid": false,
    "close_approach_data": [
        {
            "close_approach_date": "2008-03-23",
            "close_approach_date_full": "2008-Mar-23 09:39",
            "epoch_date_close_approach": 1206265140000,
            "relative_velocity": {
                "kilometers_per_second": "13.3122026036",
                "kilometers_per_hour": "47923.9293728077",
                "miles_per_hour": "29778.0660038982"
            },
            "miss_distance": {
                "astronomical": "0.0021775296",
                "lunar": "0.8470590144",
                "kilometers": "325753.790021952",
                "miles": "202414.0190568576"
            },
            "orbiting_body": "Earth"
        },
        {
            "close_approach_date": "2008-03-23",
            "close_approach_date_full": "2008-Mar-23 18:17",
            "epoch_date_close_approach": 1206296220000,
            "relative_velocity": {
                "kilometers_per_second": "13.378493687",
                "kilometers_per_hour": "48162.5772732101",
                "miles_per_hour": "29926.3525284566"
            },
            "miss_distance": {
                "astronomical": "0.0021118819",
                "lunar": "0.8215220591",
                "kilometers": "315933.033931553",
                "miles": "196311.6841913114"
            },
            "orbiting_body": "Moon"
        },
        {
            "close_approach_date": "2138-04-17",
            "close_approach_date_full": "2138-Apr-17 15:47",
            "epoch_date_close_approach": 5310805620000,
            "relative_velocity": {
                "kilometers_per_second": "23.0834231832",
                "kilometers_per_hour": "83100.3234596428",
                "miles_per_hour": "51635.3093185764"
            },
            "miss_distance": {
                "astronomical": "0.331142292",
                "lunar": "128.814351588",
                "kilometers": "49538181.55011804",
                "miles": "30781598.653547352"
            },
            "orbiting_body": "Earth"
        }
    ],
    "orbital_data": {
        "orbit_id": "10",
        "orbit_determination_date": "2017-04-06 09:03:55",
        "first_observation_date": "2008-03-27",
        "last_observation_date": "2008-03-31",
        "data_arc_in_days": 4,
        "observations_used": 21,
        "orbit_uncertainty": "8",
        "minimum_orbit_intersection": ".000372058",
        "jupiter_tisserand_invariant": "3.707",
        "epoch_osculation": "2454554.5",
        "eccentricity": ".5743381080946218",
        "semi_major_axis": "1.916410407584701",
        "inclination": "3.022982297080614",
        "ascending_node_longitude": "182.8339602895035",
        "orbital_period": "969.0165800881056",
        "perihelion_distance": ".8157428797596609",
        "perihelion_argument": "300.5445641518426",
        "aphelion_distance": "3.017077935409742",
        "perihelion_time": "2454507.940132297536",
        "mean_anomaly": "17.29748769764397",
        "mean_motion": ".3715106711252225",
        "equinox": "J2000",
        "orbit_class": {
            "orbit_class_type": "APO",
            "orbit_class_description": "Near-Earth asteroid orbits which cross the Earth’s orbit similar to that of 1862 Apollo",
            "orbit_class_range": "a (semi-major axis) > 1.0 AU; q (perihelion) < 1.017 AU"
        }
    },
    "is_sentry_object": false
}